{"type": "FeatureCollection", "features": [{"type": "Feature", "properties": {"norad_id": 32275, "name": "COSMOS 2433 (720)", "group": "glo-ops", "lat": -15.680583517452927, "lon": 149.3707219146483, "alt_km": 19124.5137620401, "timestamp": "2025-12-16T03:53:27.316277+00:00", "meta": {"OBJECT_NAME": "COSMOS 2433 (720)", "OBJECT_ID": "2007-052A", "EPOCH": "2025-12-14T23:11:38.676768", "MEAN_MOTION": 2.13103946, "ECCENTRICITY": 0.00054528, "INCLINATION": 65.6819, "RA_OF_ASC_NODE": 322.1306, "ARG_OF_PERICENTER": 253.3284, "MEAN_ANOMALY": 106.6099, "EPHEMERIS_TYPE": 0, "CLASSIFICATION_TYPE": "U", "NORAD_CAT_ID": 32275, "ELEMENT_SET_NO": 999, "REV_AT_EPOCH": 14113, "BSTAR": 0, "MEAN_MOTION_DOT": -6.5e-07, "MEAN_MOTION_DDOT": 0}, "tle": {"line1": "1 32275U 07052A   25348.96641987 -.00000065  00000+0  00000+0 0  9995", "line2": "2 32275  65.6819 322.1306 0005452 253.3284 106.6099  2.13103946141136"}}, "geometry": {"type": "Point", "coordinates": [149.3707219146483, -15.680583517452927]}}, {"type": "Feature", "properties": {"norad_id": 32276, "name": "COSMOS 2432 (719)", "group": "glo-ops", "lat": 34.35920973961285, "lon": 124.21010582961854, "alt_km": 19154.253391638267, "timestamp": "2025-12-16T03:53:27.316300+00:00", "meta": {"OBJECT_NAME": "COSMOS 2432 (719)", "OBJECT_ID": "2007-052B", "EPOCH": "2025-12-15T06:31:38.583840", "MEAN_MOTION": 2.13103103, "ECCENTRICITY": 0.00112605, "INCLINATION": 65.6973, "RA_OF_ASC_NODE": 322.2446, "ARG_OF_PERICENTER": 312.4858, "MEAN_ANOMALY": 226.3212, "EPHEMERIS_TYPE": 0, "CLASSIFICATION_TYPE": "U", "NORAD_CAT_ID": 32276, "ELEMENT_SET_NO": 999, "REV_AT_EPOCH": 14116, "BSTAR": 0, "MEAN_MOTION_DOT": -6.6e-07, "MEAN_MOTION_DDOT": 0}, "tle": {"line1": "1 32276U 07052B   25349.27197435 -.00000066  00000+0  00000+0 0  9996", "line2": "2 32276  65.6973 322.2446 0011260 312.4858 226.3212  2.13103103141167"}}, "geometry": {"type": "Point", "coordinates": [124.21010582961854, 34.35920973961285]}}, {"type": "Feature", "properties": {"norad_id": 32393, "name": "COSMOS 2434 (721)", "group": "glo-ops", "lat": 64.21281287130493, "lon": -76.90924277868625, "alt_km": 19112.193167341153, "timestamp": "2025-12-16T03:53:27.316314+00:00", "meta": {"OBJECT_NAME": "COSMOS 2434 (721)", "OBJECT_ID": "2007-065A", "EPOCH": "2025-12-15T08:26:38.759136", "MEAN_MOTION": 2.13101367, "ECCENTRICITY": 0.00044341, "INCLINATION": 64.3148, "RA_OF_ASC_NODE": 198.1152, "ARG_OF_PERICENTER": 71.4602, "MEAN_ANOMALY": 114.7825, "EPHEMERIS_TYPE": 0, "CLASSIFICATION_TYPE": "U", "NORAD_CAT_ID": 32393, "ELEMENT_SET_NO": 999, "REV_AT_EPOCH": 13985, "BSTAR": 0, "MEAN_MOTION_DOT": 1.05e-06, "MEAN_MOTION_DDOT": 0}, "tle": {"line1": "1 32393U 07065A   25349.35183749  .00000105  00000+0  00000+0 0  9995", "line2": "2 32393  64.3148 198.1152 0004434  71.4602 114.7825  2.13101367139858"}}, "geometry": {"type": "Point", "coordinates": [-76.90924277868625, 64.21281287130493]}}, {"type": "Feature", "properties": {"norad_id": 32395, "name": "COSMOS 2436 (723)", "group": "glo-ops", "lat": -36.06480670155146, "lon": 38.67165300848006, "alt_km": 19173.340562603527, "timestamp": "2025-12-16T03:53:27.316328+00:00", "meta": {"OBJECT_NAME": "COSMOS 2436 (723)", "OBJECT_ID": "2007-065C", "EPOCH": "2025-12-08T02:01:11.627904", "MEAN_MOTION": 2.13100022, "ECCENTRICITY": 0.00177472, "INCLINATION": 64.3236, "RA_OF_ASC_NODE": 198.4308, "ARG_OF_PERICENTER": 9.2257, "MEAN_ANOMALY": 134.6131, "EPHEMERIS_TYPE": 0, "CLASSIFICATION_TYPE": "U", "NORAD_CAT_ID": 32395, "ELEMENT_SET_NO": 999, "REV_AT_EPOCH": 13965, "BSTAR": 0, "MEAN_MOTION_DOT": 5.1e-07, "MEAN_MOTION_DDOT": 0}, "tle": {"line1": "1 32395U 07065C   25342.08416236  .00000051  00000+0  00000+0 0  9990", "line2": "2 32395  64.3236 198.4308 0017747   9.2257 134.6131  2.13100022139656"}}, "geometry": {"type": "Point", "coordinates": [38.67165300848006, -36.06480670155146]}}, {"type": "Feature", "properties": {"norad_id": 36111, "name": "COSMOS 2456 (730)", "group": "glo-ops", "lat": -55.14601807709697, "lon": -60.55918131896541, "alt_km": 19131.120952123958, "timestamp": "2025-12-16T03:53:27.316340+00:00", "meta": {"OBJECT_NAME": "COSMOS 2456 (730)", "OBJECT_ID": "2009-070A", "EPOCH": "2025-12-14T09:56:44.941056", "MEAN_MOTION": 2.13103612, "ECCENTRICITY": 0.00031175, "INCLINATION": 64.9016, "RA_OF_ASC_NODE": 77.2804, "ARG_OF_PERICENTER": 298.1789, "MEAN_ANOMALY": 45.9889, "EPHEMERIS_TYPE": 0, "CLASSIFICATION_TYPE": "U", "NORAD_CAT_ID": 36111, "ELEMENT_SET_NO": 999, "REV_AT_EPOCH": 12448, "BSTAR": 0, "MEAN_MOTION_DOT": -5.7e-07, "MEAN_MOTION_DDOT": 0}, "tle": {"line1": "1 36111U 09070A   25348.41440904 -.00000057  00000+0  00000+0 0  9997", "line2": "2 36111  64.9016  77.2804 0003117 298.1789  45.9889  2.13103612124485"}}, "geometry": {"type": "Point", "coordinates": [-60.55918131896541, -55.14601807709697]}}, {"type": "Feature", "properties": {"norad_id": 36112, "name": "COSMOS 2457 (733)", "group": "glo-ops", "lat": 12.675470537336043, "lon": 83.12008663385393, "alt_km": 19138.612517102487, "timestamp": "2025-12-16T03:53:27.316352+00:00", "meta": {"OBJECT_NAME": "COSMOS 2457 (733)", "OBJECT_ID": "2009-070B", "EPOCH": "2025-12-13T07:58:58.732608", "MEAN_MOTION": 2.13100875, "ECCENTRICITY": 0.00047033, "INCLINATION": 64.8861, "RA_OF_ASC_NODE": 77.165, "ARG_OF_PERICENTER": 158.447, "MEAN_ANOMALY": 204.9439, "EPHEMERIS_TYPE": 0, "CLASSIFICATION_TYPE": "U", "NORAD_CAT_ID": 36112, "ELEMENT_SET_NO": 999, "REV_AT_EPOCH": 12447, "BSTAR": 0, "MEAN_MOTION_DOT": -5.1e-07, "MEAN_MOTION_DDOT": 0}, "tle": {"line1": "1 36112U 09070B   25347.33262422 -.00000051  00000+0  00000+0 0  9999", "line2": "2 36112  64.8861  77.1650 0004703 158.4470 204.9439  2.13100875124473"}}, "geometry": {"type": "Point", "coordinates": [83.12008663385393, 12.675470537336043]}}, {"type": "Feature", "properties": {"norad_id": 36402, "name": "COSMOS 2460 (732)", "group": "glo-ops", "lat": 12.392855847114868, "lon": -33.612699055795844, "alt_km": 19129.46730175944, "timestamp": "2025-12-16T03:53:27.316364+00:00", "meta": {"OBJECT_NAME": "COSMOS 2460 (732)", "OBJECT_ID": "2010-007C", "EPOCH": "2025-12-15T05:47:00.728160", "MEAN_MOTION": 2.13106127, "ECCENTRICITY": 0.00026664, "INCLINATION": 65.5278, "RA_OF_ASC_NODE": 320.6882, "ARG_OF_PERICENTER": 275.3459, "MEAN_ANOMALY": 111.58, "EPHEMERIS_TYPE": 0, "CLASSIFICATION_TYPE": "U", "NORAD_CAT_ID": 36402, "ELEMENT_SET_NO": 999, "REV_AT_EPOCH": 12281, "BSTAR": 0, "MEAN_MOTION_DOT": -6.7e-07, "MEAN_MOTION_DDOT": 0}, "tle": {"line1": "1 36402U 10007C   25349.24098065 -.00000067  00000+0  00000+0 0  9992", "line2": "2 36402  65.5278 320.6882 0002666 275.3459 111.5800  2.13106127122817"}}, "geometry": {"type": "Point", "coordinates": [-33.612699055795844, 12.392855847114868]}}, {"type": "Feature", "properties": {"norad_id": 37867, "name": "COSMOS 2476 (744)", "group": "glo-ops", "lat": 24.30020477906692, "lon": -112.98862606502828, "alt_km": 19117.142941591937, "timestamp": "2025-12-16T03:53:27.316376+00:00", "meta": {"OBJECT_NAME": "COSMOS 2476 (744)", "OBJECT_ID": "2011-064A", "EPOCH": "2025-12-10T19:30:14.482368", "MEAN_MOTION": 2.13101258, "ECCENTRICITY": 0.00238922, "INCLINATION": 65.1614, "RA_OF_ASC_NODE": 79.2364, "ARG_OF_PERICENTER": 233.6597, "MEAN_ANOMALY": 135.7131, "EPHEMERIS_TYPE": 0, "CLASSIFICATION_TYPE": "U", "NORAD_CAT_ID": 37867, "ELEMENT_SET_NO": 999, "REV_AT_EPOCH": 10975, "BSTAR": 0, "MEAN_MOTION_DOT": -2.4e-07, "MEAN_MOTION_DDOT": 0}, "tle": {"line1": "1 37867U 11064A   25344.81266762 -.00000024  00000+0  00000+0 0  9994", "line2": "2 37867  65.1614  79.2364 0023892 233.6597 135.7131  2.13101258109752"}}, "geometry": {"type": "Point", "coordinates": [-112.98862606502828, 24.30020477906692]}}, {"type": "Feature", "properties": {"norad_id": 37868, "name": "COSMOS 2477 (745)", "group": "glo-ops", "lat": -23.049439287298604, "lon": 67.79675650671206, "alt_km": 19142.41313415343, "timestamp": "2025-12-16T03:53:27.316388+00:00", "meta": {"OBJECT_NAME": "COSMOS 2477 (745)", "OBJECT_ID": "2011-064B", "EPOCH": "2025-12-15T06:06:12.573216", "MEAN_MOTION": 2.1310289, "ECCENTRICITY": 0.00211455, "INCLINATION": 65.1707, "RA_OF_ASC_NODE": 79.1637, "ARG_OF_PERICENTER": 234.5873, "MEAN_ANOMALY": 123.1925, "EPHEMERIS_TYPE": 0, "CLASSIFICATION_TYPE": "U", "NORAD_CAT_ID": 37868, "ELEMENT_SET_NO": 999, "REV_AT_EPOCH": 10983, "BSTAR": 0, "MEAN_MOTION_DOT": -5.6e-07, "MEAN_MOTION_DDOT": 0}, "tle": {"line1": "1 37868U 11064B   25349.25431219 -.00000056  00000+0  00000+0 0  9994", "line2": "2 37868  65.1707  79.1637 0021145 234.5873 123.1925  2.13102890109838"}}, "geometry": {"type": "Point", "coordinates": [67.79675650671206, -23.049439287298604]}}, {"type": "Feature", "properties": {"norad_id": 37869, "name": "COSMOS 2475 (743)", "group": "glo-ops", "lat": -58.32997657805181, "lon": 30.65222997522356, "alt_km": 19085.9713413359, "timestamp": "2025-12-16T03:53:27.316399+00:00", "meta": {"OBJECT_NAME": "COSMOS 2475 (743)", "OBJECT_ID": "2011-064C", "EPOCH": "2025-12-15T07:18:38.805120", "MEAN_MOTION": 2.13101556, "ECCENTRICITY": 0.00263599, "INCLINATION": 65.1776, "RA_OF_ASC_NODE": 79.182, "ARG_OF_PERICENTER": 248.7523, "MEAN_ANOMALY": 103.5515, "EPHEMERIS_TYPE": 0, "CLASSIFICATION_TYPE": "U", "NORAD_CAT_ID": 37869, "ELEMENT_SET_NO": 999, "REV_AT_EPOCH": 10984, "BSTAR": 0, "MEAN_MOTION_DOT": -5.6e-07, "MEAN_MOTION_DDOT": 0}, "tle": {"line1": "1 37869U 11064C   25349.30461580 -.00000056  00000+0  00000+0 0  9995", "line2": "2 37869  65.1776  79.1820 0026359 248.7523 103.5515  2.13101556109846"}}, "geometry": {"type": "Point", "coordinates": [30.65222997522356, -58.32997657805181]}}]}